GLOBALSTAR M045         
1 25676U 99019A   25061.55605725 -.00000077  00000+0  14853-3 0  9991
2 25676  51.9949 249.1922 0001026  69.8541 352.1406 12.27058244180304
GLOBALSTAR M019         
1 25677U 99019B   25061.32503966 -.00000231  00000+0 -14663-2 0  9992
2 25677  51.9910  12.6932 0001443  94.3959  64.9566 12.13873313172163
GLOBALSTAR M044         
1 25678U 99019C   25061.59863005 -.00000077  00000+0  91880-4 0  9990
2 25678  51.9984 309.9633 0006008 189.1790 173.0029 11.90246604158636
GLOBALSTAR M042         
1 25679U 99019D   25061.26996404 -.00000071  00000+0  19619-3 0  9998
2 25679  52.0045 352.7840 0003332  76.4512  89.7549 12.22079319172189
GLOBALSTAR M025         
1 25770U 99031A   25061.47876854 -.00000079  00000+0 -36483-3 0  9990
2 25770  51.9832  46.4662 0001398 332.3053 200.0041 11.22559576469727
GLOBALSTAR M049         
1 25771U 99031B   25061.47941975 -.00000008  00000+0  19747-2 0  9992
2 25771  51.9868  75.8661 0003288 191.1952 168.8772 11.12115385105556
GLOBALSTAR M047         
1 25772U 99031C   25061.47372520 -.00000062  00000+0  22245-3 0  9995
2 25772  51.9823  83.0450 0016430  80.7984 279.4679 11.31926189459028
GLOBALSTAR M052         
1 25773U 99031D   25061.55717535 -.00000068  00000+0 -79991-4 0  9992
2 25773  51.9848 185.8670 0002070  17.3912  68.4367 11.15058135466615
